IRIDIUM 26              
1 24903U 97043A   25351.64188471  .00000361  00000+0  11446-3 0  9994
2 24903  86.3956  33.5024 0002179  99.0453 261.0991 14.37331491483091
IRIDIUM 22              
1 24907U 97043E   25351.58498536  .00000298  00000+0  95549-4 0  9993
2 24907  86.3960  37.2237 0002314  95.2168 264.9293 14.36124916483097
DUMMY MASS 1            
1 24925U 97048A   25351.65027364  .00000352  00000+0  36039-4 0  9993
2 24925  86.3343  50.4342 0005584 195.4648 164.6408 14.87187202532399
DUMMY MASS 2            
1 24926U 97048B   25351.64306967  .00000350  00000+0  35999-4 0  9994
2 24926  86.3343  52.0793 0005859 211.8173 148.2699 14.86937608532166
IRIDIUM 29              
1 24944U 97051A   25351.61093137  .00000343  00000+0  10976-3 0  9996
2 24944  86.3952  66.8984 0002273  91.7136 268.4322 14.36666831479607
IRIDIUM 33              
1 24946U 97051C   25351.58750803  .00000295  00000+0  96712-4 0  9993
2 24946  86.3868  66.1869 0007616 183.6428 176.4714 14.35040862479041
IRIDIUM 28              
1 24948U 97051E   25351.60810129  .00000341  00000+0  10728-3 0  9990
2 24948  86.3957  64.3103 0002085 109.9910 250.1513 14.37566726480194
IRIDIUM 36              
1 24967U 97056C   25351.33406570  .00000376  00000+0  11846-3 0  9997
2 24967  86.3962  96.0529 0002218 101.4211 258.7236 14.37788283478539
